NORAD_CAT_ID,OBJECT_NAME,OBJECT_TYPE,EPOCH,MEAN_MOTION,ECCENTRICITY,INCLINATION,RA_OF_ASC_NODE,ARG_OF_PERICENTER,MEAN_ANOMALY,BSTAR,MEAN_MOTION_DOT,MEAN_MOTION_DDOT,TLE_LINE0,TLE_LINE1,TLE_LINE2,SEMIMAJOR_AXIS,PERIOD,APOGEE,PERIGEE,DECAYED
53528.0,STARLINK-4503,PAYLOAD,2022-08-24 14:00:01,15.89534209,0.0039543,53.2174,131.4073,56.2547,37.3548,-0.0040126,-0.01287265,0.00047282,0 STARLINK-4503,1 53528U 22101B   22236.58334491 -.01287265  47282-3 -40126-2 0  9995,2 53528  53.2174 131.4073 0039543  56.2547  37.3548 15.89534209   779,6681.725,90.593,330.011,277.168,0.0
53528.0,STARLINK-4503,PAYLOAD,2022-08-25 04:00:00,15.88040878,0.0032324,53.2173,128.4561,57.683,134.3276,-0.0046148,-0.01339226,0.00050116,0 STARLINK-4503,1 53528U 22101B   22237.16667824 -.01339226  50116-3 -46148-2 0  9994,2 53528  53.2173 128.4561 0032324  57.6830 134.3276 15.88040878   865,6685.913000000001,90.678,329.39,286.166,0.0
53528.0,STARLINK-4503,PAYLOAD,2022-08-25 12:00:00,15.87185839,0.0029454,53.2175,126.7689,58.5674,239.6705,-0.00496,-0.01367895,0.00051682,0 STARLINK-4503,1 53528U 22101B   22237.50001157 -.01367895  51682-3 -49600-2 0  9991,2 53528  53.2175 126.7689 0029454  58.5674 239.6705 15.87185839   913,6688.314,90.727,329.879,290.4790000000001,0.0
53528.0,STARLINK-4503,PAYLOAD,2022-08-25 14:00:01,15.86936016,0.0028642,53.2173,126.3474,58.1047,356.5396,-0.0047808999999999,-0.01300283,0.00047014,0 STARLINK-4503,1 53528U 22101B   22237.58334491 -.01300283  47014-3 -47809-2 0  9990,2 53528  53.2173 126.3474 0028642  58.1047 356.5396 15.86936016  1306,6689.016,90.741,330.04,291.722,0.0
53528.0,STARLINK-4503,PAYLOAD,2022-08-25 18:00:00,15.86538595,0.0027014,53.2175,125.5067,58.1625,229.0614,-0.0051763999999999,-0.01374186,0.0005181,0 STARLINK-4503,1 53528U 22101B   22237.75001157 -.01374186  51810-3 -51764-2 0  9996,2 53528  53.2175 125.5067 0027014  58.1625 229.0614 15.86538595   958,6690.1330000000025,90.764,330.071,293.925,0.0
53528.0,STARLINK-4503,PAYLOAD,2022-08-25 22:00:00,15.8607974,0.0025493,53.2175,124.6668,57.1835,102.3815,-0.0051131,-0.01323111,0.00048153,0 STARLINK-4503,1 53528U 22101B   22237.91667824 -.01323111  48153-3 -51131-2 0  9999,2 53528  53.2175 124.6668 0025493  57.1835 102.3815 15.86079740  1304,6691.4230000000025,90.79,330.347,296.23,0.0
53528.0,STARLINK-4503,PAYLOAD,2022-08-26 12:00:00,15.8458385,0.0019984,53.2174,121.7267,58.3881,192.2807,-0.0057628,-0.01209282,0.0,0 STARLINK-4503,1 53528U 22101B   22238.50001157 -.01209282  00000-0 -57628-2 0  9991,2 53528  53.2174 121.7267 0019984  58.3881 192.2807 15.84583850  1071,6695.634,90.876,330.879,304.118,0.0
53528.0,STARLINK-4503,PAYLOAD,2022-08-26 14:00:01,15.8434617,0.0019053,53.2172,121.3068,57.621,308.7338,-0.0056597999999999,-0.01176197,0.0,0 STARLINK-4503,1 53528U 22101B   22238.58335648 -.01176197  00000-0 -56598-2 0  9997,2 53528  53.2172 121.3068 0019053  57.6210 308.7338 15.84346170  1300,6696.303000000001,90.889,330.927,305.41,0.0
53528.0,STARLINK-4503,PAYLOAD,2022-08-26 22:00:00,15.83466803,0.0016070999999999,53.2172,119.6329,56.0139,52.074,-0.0058067,-0.01152975,0.0,0 STARLINK-4503,1 53528U 22101B   22238.91667824 -.01152975  00000-0 -58067-2 0  9999,2 53528  53.2172 119.6329 0016071  56.0139  52.0740 15.83466803  1301,6698.781999999997,90.94,331.413,309.882,0.0
53528.0,STARLINK-4503,PAYLOAD,2022-08-27 14:00:01,15.81759978,0.00094,53.2175,116.2856,52.7417,255.8025,-0.0066416,-0.01220661,0.0,0 STARLINK-4503,1 53528U 22101B   22239.58334491 -.01220661  00000-0 -66416-2 0  9999,2 53528  53.2175 116.2856 0009400  52.7417 255.8025 15.81759978  1307,6703.6,91.038,331.767,319.164,0.0
53528.0,STARLINK-4503,PAYLOAD,2022-08-27 20:00:01,15.81113282,0.0006966,53.2176,115.035,47.2564,245.3837,-0.0068926,-0.01225248,0.0,0 STARLINK-4503,1 53528U 22101B   22239.83334491 -.01225248  00000-0 -68926-2 0  9991,2 53528  53.2176 115.0350 0006966  47.2564 245.3837 15.81113282  1284,6705.428000000001,91.075,331.964,322.622,0.0
53528.0,STARLINK-4503,PAYLOAD,2022-08-27 22:00:00,15.8086964,0.0006299,53.2176,114.6182,42.4767,4.7415,-0.0066881,-0.01180147,0.0,0 STARLINK-4503,1 53528U 22101B   22239.91667824 -.01180147  00000-0 -66881-2 0  9995,2 53528  53.2176 114.6182 0006299  42.4767   4.7415 15.80869640  1300,6706.1169999999975,91.089,332.206,323.758,0.0
53528.0,STARLINK-4503,PAYLOAD,2022-08-28 14:00:01,15.79147456,0.0003013999999999,53.2172,111.2837,14.1093,227.3117,-0.0074023,-0.01200732,0.0,0 STARLINK-4503,1 53528U 22101B   22240.58334491 -.01200732  00000-0 -74023-2 0  9991,2 53528  53.2172 111.2837 0003014  14.1093 227.3117 15.79147456  1300,6710.9919999999975,91.188,334.88,330.834,0.0
53528.0,STARLINK-4503,PAYLOAD,2022-08-28 20:00:01,15.78490535,0.0002835,53.2174,110.0379,11.7592,211.4152,-0.0075616,-0.01191347,0.0,0 STARLINK-4503,1 53528U 22101B   22240.83334491 -.01191347  00000-0 -75616-2 0  9999,2 53528  53.2174 110.0379 0002835  11.7592 211.4152 15.78490535  1443,6712.854,91.226,336.622,332.816,0.0
53528.0,STARLINK-4503,PAYLOAD,2022-08-28 22:00:00,15.78278459,0.0002878,53.2173,109.6227,8.5515,328.4073,-0.0076863,-0.0119849999999999,0.0,0 STARLINK-4503,1 53528U 22101B   22240.91667824 -.01198500  00000-0 -76863-2 0  9990,2 53528  53.2173 109.6227 0002878   8.5515 328.4073 15.78278459  1309,6713.455,91.239,337.2519999999999,333.3880000000001,0.0
53528.0,STARLINK-4503,PAYLOAD,2022-08-29 12:00:00,15.76760844,0.0003276,53.2175,106.716,339.8902,71.7525,-0.0082482999999999,-0.01200997,0.0,0 STARLINK-4503,1 53528U 22101B   22241.50001157 -.01200997  00000-0 -82483-2 0  9996,2 53528  53.2175 106.7160 0003276 339.8902  71.7525 15.76760844  1557,6717.762,91.326,341.8280000000001,337.426,0.0
53528.0,STARLINK-4503,PAYLOAD,2022-08-29 14:00:01,15.76543204,0.0003285,53.2176,106.301,353.4003,171.5076,-0.0083115,-0.01198762,0.0,0 STARLINK-4503,1 53528U 22101B   22241.58334491 -.01198762  00000-0 -83115-2 0  9993,2 53528  53.2176 106.3010 0003285 353.4003 171.5076 15.76543204  1304,6718.38,91.339,342.452,338.038,0.0
53528.0,STARLINK-4503,PAYLOAD,2022-08-29 22:00:00,15.75660898,0.0001694,53.2175,104.6466,274.308,343.0135,-0.0084571,-0.01174767,0.0,0 STARLINK-4503,1 53528U 22101B   22241.91667824 -.01174767  00000-0 -84571-2 0  9995,2 53528  53.2175 104.6466 0001694 274.3080 343.0135 15.75660898  1307,6720.888000000001,91.39,343.892,341.615,0.0
53528.0,STARLINK-4503,PAYLOAD,2022-08-30 06:00:00,15.74809144,0.0006501,53.2172,102.9914,317.8011,30.8814,-0.0089875,-0.01202587,0.0,0 STARLINK-4503,1 53528U 22101B   22242.25001157 -.01202587  00000-0 -89875-2 0  9998,2 53528  53.2172 102.9914 0006501 317.8011  30.8814 15.74809144  1664,6723.311,91.44,349.547,340.806,0.0
53528.0,STARLINK-4503,PAYLOAD,2022-08-30 14:00:01,15.73894441,9.75e-05,53.2168,101.3382,356.9945,81.9742,-0.0061281,-0.00806326,0.0,0 STARLINK-4503,1 53528U 22101B   22242.58334491 -.00806326  00000-0 -61281-2 0  9995,2 53528  53.2168 101.3382 0000975 356.9945  81.9742 15.73894441  1727,6725.916,91.493,348.43699999999984,347.125,0.0
53528.0,STARLINK-4503,PAYLOAD,2022-08-30 20:00:01,15.732841699999998,0.0001399,53.2173,100.1014,33.144,22.9657,-0.00092661,-0.00129152,0.0,0 STARLINK-4503,1 53528U 22101B   22242.83334491 -.00129152  00000-0 -92661-3 0  9995,2 53528  53.2173 100.1014 0001399  33.1440  22.9657 15.73284170  1763,6727.655,91.528,350.461,348.579,0.0
53528.0,STARLINK-4503,PAYLOAD,2022-08-30 22:00:00,15.73186976,0.0001594,53.216,99.694,64.936,103.3129,0.00028615,0.00039707,0.0,0 STARLINK-4503,1 53528U 22101B   22242.91667824  .00039707  00000-0  28615-3 0  9995,2 53528  53.2160  99.6940 0001594  64.9360 103.3129 15.73186976  1302,6727.932,91.534,350.87,348.725,0.0
53528.0,STARLINK-4503,PAYLOAD,2022-08-31 12:00:00,15.73215121,0.0001452,53.216,96.8052,70.4148,163.4864,0.00058778,0.00082741,0.0,0 STARLINK-4503,1 53528U 22101B   22243.50001157  .00082741  00000-0  58778-3 0  9991,2 53528  53.2160  96.8052 0001452  70.4148 163.4864 15.73215121  1863,6727.852,91.532,350.694,348.74,0.0
53528.0,STARLINK-4503,PAYLOAD,2022-08-31 14:00:01,15.73238398,0.000149,53.2162,96.3929,71.367,274.7704,0.00042598,0.00059688,0.0,0 STARLINK-4503,1 53528U 22101B   22243.58334491  .00059688  00000-0  42598-3 0  9996,2 53528  53.2162  96.3929 0001490  71.3670 274.7704 15.73238398  1304,6727.786,91.531,350.653,348.648,0.0
53528.0,STARLINK-4503,PAYLOAD,2022-08-31 20:00:01,15.73281267,0.0001529,53.2159,95.1573,63.7797,259.1008,-0.0001491,-0.00021566,0.0,0 STARLINK-4503,1 53528U 22101B   22243.83334491 -.00021566  00000-0 -14910-3 0  9997,2 53528  53.2159  95.1573 0001529  63.7797 259.1008 15.73281267  1914,6727.663000000001,91.528,350.557,348.5,0.0
53528.0,STARLINK-4503,PAYLOAD,2022-08-31 22:00:00,15.73289662,0.0001563,53.2159,94.7454,62.0229,13.1097,-0.00033827,-0.00048008,0.0,0 STARLINK-4503,1 53528U 22101B   22243.91667824 -.00048008  00000-0 -33827-3 0  9993,2 53528  53.2159  94.7454 0001563  62.0229  13.1097 15.73289662  1303,6727.64,91.528,350.556,348.45300000000015,0.0
53528.0,STARLINK-4503,PAYLOAD,2022-09-01 12:00:00,15.73203158,0.0001284999999999,53.2156,91.8561,71.3806,69.5245,-4.3033e-05,-6.655e-05,0.0,0 STARLINK-4503,1 53528U 22101B   22244.50001157 -.00006655  00000-0 -43033-4 0  9993,2 53528  53.2156  91.8561 0001285  71.3806  69.5245 15.73203158  2028,6727.886,91.533,350.616,348.88699999999994,0.0
53528.0,STARLINK-4503,PAYLOAD,2022-09-01 14:00:01,15.73219285,0.0001273,53.2159,91.4438,72.3483,180.8462,-0.00039191,-0.00055306,0.0,0 STARLINK-4503,1 53528U 22101B   22244.58335648 -.00055306  00000-0 -39191-3 0  9992,2 53528  53.2159  91.4438 0001273  72.3483 180.8462 15.73219285  1305,6727.84,91.532,350.56199999999984,348.849,0.0
53528.0,STARLINK-4503,PAYLOAD,2022-09-01 22:00:00,15.73153483,0.0001299,53.2162,89.7965,57.9636,284.098,0.00028781,0.00039884,0.0,0 STARLINK-4503,1 53528U 22101B   22244.91667824  .00039884  00000-0  28781-3 0  9997,2 53528  53.2162  89.7965 0001299  57.9636 284.0980 15.73153483  1300,6728.028,91.536,350.767,349.019,0.0
